GIOVE-A                 
1 28922U 05051A   08106.38114670  .00000016  00000-0  10000-3 0  3400
2 28922  56.0496 168.6354 0008337 325.5659  34.4452  1.70188837 14284
